NORAD_CAT_ID,OBJECT_NAME,OBJECT_TYPE,EPOCH,MEAN_MOTION,ECCENTRICITY,INCLINATION,RA_OF_ASC_NODE,ARG_OF_PERICENTER,MEAN_ANOMALY,BSTAR,MEAN_MOTION_DOT,MEAN_MOTION_DDOT,TLE_LINE0,TLE_LINE1,TLE_LINE2,SEMIMAJOR_AXIS,PERIOD,APOGEE,PERIGEE,DECAYED
53023.0,STARLINK-4284,PAYLOAD,2023-06-16 14:46:01,15.08859973,0.0001007,53.2158,240.1524,78.3777,281.7328,0.00037898,5.752e-05,0.0,0 STARLINK-4284,1 53023U 22076AP  23167.61529853  .00005752  00000-0  37898-3 0  9995,2 53023  53.2158 240.1524 0001007  78.3777 281.7328 15.08859973 52467,6917.819,95.436,540.381,538.988,0.0
53023.0,STARLINK-4284,PAYLOAD,2023-06-17 05:04:30,15.08837294,7.32e-05,53.2156,237.4765,81.1316,278.9759,-8.5137e-05,-1.642e-05,0.0,0 STARLINK-4284,1 53023U 22076AP  23168.21146675 -.00001642  00000-0 -85137-4 0  9995,2 53023  53.2156 237.4765 0000732  81.1316 278.9759 15.08837294 53027,6917.889,95.438,540.26,539.247,0.0
53023.0,STARLINK-4284,PAYLOAD,2023-06-17 11:26:03,15.08835597,8.86e-05,53.2159,236.2872,84.3598,275.7495,-9.6708e-05,-1.826e-05,0.0,0 STARLINK-4284,1 53023U 22076AP  23168.47642838 -.00001826  00000-0 -96708-4 0  9995,2 53023  53.2159 236.2872 0000886  84.3598 275.7495 15.08835597 52590,6917.894,95.438,540.372,539.146,0.0
53023.0,STARLINK-4284,PAYLOAD,2023-06-17 20:58:22,15.08837077,9.08e-05,53.2159,234.5032,85.4483,274.6613,-2.4356e-05,-6.75e-06,0.0,0 STARLINK-4284,1 53023U 22076AP  23168.87386910 -.00000675  00000-0 -24356-4 0  9996,2 53023  53.2159 234.5032 0000908  85.4483 274.6613 15.08837077 52651,6917.889,95.438,540.382,539.126,0.0
53023.0,STARLINK-4284,PAYLOAD,2023-06-18 11:16:50,15.08842489,8.8e-05,53.2159,231.8272,86.6932,273.4161,0.00023449,3.446e-05,0.0,0 STARLINK-4284,1 53023U 22076AP  23169.47002879  .00003446  00000-0  23449-3 0  9990,2 53023  53.2159 231.8272 0000880  86.6932 273.4161 15.08842489 52746,6917.873,95.437,540.347,539.129,0.0
53023.0,STARLINK-4284,PAYLOAD,2023-06-19 11:07:37,15.08843565,8.74e-05,53.2151,227.367,87.571,272.5382,0.0002569,3.804e-05,0.0,0 STARLINK-4284,1 53023U 22076AP  23170.46363006  .00003804  00000-0  25690-3 0  9991,2 53023  53.2151 227.3670 0000874  87.5710 272.5382 15.08843565 53367,6917.869,95.437,540.339,539.13,0.0
53023.0,STARLINK-4284,PAYLOAD,2023-06-19 20:39:56,15.08843636,8.37e-05,53.2144,225.5835,90.8868,269.222,0.00017355,2.476e-05,0.0,0 STARLINK-4284,1 53023U 22076AP  23170.86106920  .00002476  00000-0  17355-3 0  9998,2 53023  53.2144 225.5835 0000837  90.8868 269.2220 15.08843636 52959,6917.869,95.437,540.313,539.155,0.0
53023.0,STARLINK-4284,PAYLOAD,2023-06-20 04:36:52,15.08836633,8.55e-05,53.2148,224.0962,92.468,267.641,-1.1613e-05,-4.72e-06,0.0,0 STARLINK-4284,1 53023U 22076AP  23171.19227142 -.00000472  00000-0 -11613-4 0  9993,2 53023  53.2148 224.0962 0000855  92.4680 267.6410 15.08836633 53478,6917.891,95.438,540.347,539.164,0.0
53023.0,STARLINK-4284,PAYLOAD,2023-06-21 10:49:11,15.08845963,8.51e-05,53.2149,218.4455,94.0968,266.0122,0.00013692,1.892e-05,0.0,0 STARLINK-4284,1 53023U 22076AP  23172.45082857  .00001892  00000-0  13692-3 0  9998,2 53023  53.2149 218.4455 0000851  94.0968 266.0122 15.08845963 53666,6917.862,95.437,540.316,539.138,0.0
53023.0,STARLINK-4284,PAYLOAD,2023-06-21 20:21:30,15.08840053,9.83e-05,53.2148,216.6624,75.1364,284.9737,8.6563e-05,1.09e-05,0.0,0 STARLINK-4284,1 53023U 22076AP  23172.84827278  .00001090  00000-0  86563-4 0  9993,2 53023  53.2148 216.6624 0000983  75.1364 284.9737 15.08840053 53250,6917.88,95.438,540.425,539.065,0.0
53023.0,STARLINK-4284,PAYLOAD,2023-06-22 02:43:03,15.08836491,9.14e-05,53.2151,215.4721,80.7942,279.3153,0.00010224,1.34e-05,0.0,0 STARLINK-4284,1 53023U 22076AP  23173.11323520  .00001340  00000-0  10224-3 0  9993,2 53023  53.2151 215.4721 0000914  80.7942 279.3153 15.08836491 53764,6917.891,95.438,540.388,539.124,0.0
53023.0,STARLINK-4284,PAYLOAD,2023-06-23 08:55:22,15.08849795,8.78e-05,53.2156,209.8213,82.0576,278.0515,0.00012874,1.762e-05,0.0,0 STARLINK-4284,1 53023U 22076AP  23174.37178630  .00001762  00000-0  12874-3 0  9993,2 53023  53.2156 209.8213 0000878  82.0576 278.0515 15.08849795 53959,6917.85,95.437,540.323,539.108,0.0
53023.0,STARLINK-4284,PAYLOAD,2023-06-24 02:24:37,15.08837466,8.71e-05,53.2143,206.55,80.1065,280.0025,7.998e-05,9.85e-06,0.0,0 STARLINK-4284,1 53023U 22076AP  23175.10043497  .00000985  00000-0  79980-4 0  9995,2 53023  53.2143 206.5500 0000871  80.1065 280.0025 15.08837466 54067,6917.888,95.438,540.356,539.151,0.0
53023.0,STARLINK-4284,PAYLOAD,2023-06-25 08:36:56,15.08844651,9.43e-05,53.2154,200.9005,80.4151,279.6948,2.4584e-05,1.04e-06,0.0,0 STARLINK-4284,1 53023U 22076AP  23176.35899180  .00000104  00000-0  24584-4 0  9994,2 53023  53.2154 200.9005 0000943  80.4151 279.6948 15.08844651 54259,6917.866,95.437,540.384,539.079,0.0
53023.0,STARLINK-4284,PAYLOAD,2023-06-26 02:06:11,15.08835138,9.71e-05,53.2152,197.6293,77.7223,282.3877,6.553e-05,7.55e-06,0.0,0 STARLINK-4284,1 53023U 22076AP  23177.08763689  .00000755  00000-0  65530-4 0  9997,2 53023  53.2152 197.6293 0000971  77.7223 282.3877 15.08835138 54362,6917.895,95.438,540.432,539.089,0.0
53023.0,STARLINK-4284,PAYLOAD,2023-06-27 08:18:31,15.08834769,9.96e-05,53.2152,191.9793,76.0356,284.0747,-5.0588e-06,-3.68e-06,0.0,0 STARLINK-4284,1 53023U 22076AP  23178.34620276 -.00000368  00000-0 -50588-5 0  9991,2 53023  53.2152 191.9793 0000996  76.0356 284.0747 15.08834769 54555,6917.896,95.438,540.45,539.072,0.0
53023.0,STARLINK-4284,PAYLOAD,2023-06-28 09:44:41,15.08839803,0.0001017,53.2157,187.2212,78.2037,281.9069,5.2217e-05,5.43e-06,0.0,0 STARLINK-4284,1 53023U 22076AP  23179.40603946  .00000543  00000-0  52217-4 0  9997,2 53023  53.2157 187.2212 0001017  78.2037 281.9069 15.08839803 54714,6917.881,95.438,540.45,539.042,0.0
53023.0,STARLINK-4284,PAYLOAD,2023-06-30 23:44:44,15.08837106,0.0001124,53.2157,175.6243,80.6368,279.4751,-1.1665e-05,-4.73e-06,0.0,0 STARLINK-4284,1 53023U 22076AP  23181.98940182 -.00000473  00000-0 -11665-4 0  9995,2 53023  53.2157 175.6243 0001124  80.6368 279.4751 15.08837106 55100,6917.889,95.438,540.532,538.977,0.0
53023.0,STARLINK-4284,PAYLOAD,2023-07-02 07:32:26,15.08838666,0.0001149,53.2162,169.6768,83.29,276.8223,1.6564e-05,-2.4e-07,0.0,0 STARLINK-4284,1 53023U 22076AP  23183.31420059 -.00000024  00000-0  16564-4 0  9994,2 53023  53.2162 169.6768 0001149  83.2900 276.8223 15.08838666 55308,6917.884,95.438,540.544,538.955,0.0
53023.0,STARLINK-4284,PAYLOAD,2023-07-04 15:10:57,15.08837109,0.0001175,53.2169,159.2687,82.2334,277.8792,2.5047e-05,1.11e-06,0.0,0 STARLINK-4284,1 53023U 22076AP  23185.63260603  .00000111  00000-0  25047-4 0  9990,2 53023  53.2169 159.2687 0001175  82.2334 277.8792 15.08837109 55650,6917.889,95.438,540.567,538.941,0.0
53023.0,STARLINK-4284,PAYLOAD,2023-07-05 05:29:25,15.08797395,0.0001397,53.2169,156.5925,92.1609,267.9543,0.00057373,8.844e-05,0.0,0 STARLINK-4284,1 53023U 22076AP  23186.22877186  .00008844  00000-0  57373-3 0  9993,2 53023  53.2169 156.5925 0001397  92.1609 267.9543 15.08797395 55742,6918.011,95.44,540.842,538.909,0.0
53023.0,STARLINK-4284,PAYLOAD,2023-07-05 15:01:44,15.08836246,0.000119,53.2169,154.8082,85.7881,274.3247,2.0734e-05,4.2e-07,0.0,0 STARLINK-4284,1 53023U 22076AP  23186.62620842  .00000042  00000-0  20734-4 0  9996,2 53023  53.2169 154.8082 0001190  85.7881 274.3247 15.08836246 55807,6917.892,95.438,540.58,538.934,0.0
53023.0,STARLINK-4284,PAYLOAD,2023-07-07 03:35:36,15.08841521,0.0001204,53.2163,147.9697,87.3596,272.7534,5.8708e-05,6.47e-06,0.0,0 STARLINK-4284,1 53023U 22076AP  23188.14972753  .00000647  00000-0  58708-4 0  9999,2 53023  53.2163 147.9697 0001204  87.3596 272.7534 15.08841521 56032,6917.876,95.437,540.574,538.908,0.0
53023.0,STARLINK-4284,PAYLOAD,2023-07-08 14:34:05,15.08838548,0.0001245,53.2161,141.4269,99.1791,260.9342,0.00019933,2.886e-05,0.0,0 STARLINK-4284,1 53023U 22076AP  23189.60700342  .00002886  00000-0  19933-3 0  9997,2 53023  53.2161 141.4269 0001245  99.1791 260.9342 15.08838548 56252,6917.885,95.438,540.611,538.889,0.0
53023.0,STARLINK-4284,PAYLOAD,2023-07-09 03:17:10,15.08838548,0.0001124,53.2167,139.0472,101.4587,258.6531,-7.4376e-06,-4.06e-06,0.0,0 STARLINK-4284,1 53023U 22076AP  23190.13693129 -.00000406  00000-0 -74376-5 0  9993,2 53023  53.2167 139.0472 0001124 101.4587 258.6531 15.08838548 56336,6917.885,95.438,540.527,538.972,0.0
53023.0,STARLINK-4284,PAYLOAD,2023-07-10 04:43:21,15.0884069,0.0001086,53.2162,134.2921,94.0966,266.015,3.604e-06,-2.3e-06,0.0,0 STARLINK-4284,1 53023U 22076AP  23191.19677156 -.00000230  00000-0  36040-5 0  9992,2 53023  53.2162 134.2921 0001086  94.0966 266.0150 15.08840690 56490,6917.878,95.438,540.495,538.992,0.0
53023.0,STARLINK-4284,PAYLOAD,2023-07-11 18:52:36,15.08835947,9.95e-05,53.2166,127.1547,95.6089,264.5017,5.8028e-05,6.36e-06,0.0,0 STARLINK-4284,1 53023U 22076AP  23192.78653608  .00000636  00000-0  58028-4 0  9992,2 53023  53.2166 127.1547 0000995  95.6089 264.5017 15.08835947 56731,6917.893,95.438,540.446,539.069,0.0
53023.0,STARLINK-4284,PAYLOAD,2023-07-13 02:40:19,15.08841139,0.0001081,53.2171,121.2071,86.0858,274.0258,1.4778e-05,-5.3e-07,0.0,0 STARLINK-4284,1 53023U 22076AP  23194.11133674 -.00000053  00000-0  14778-4 0  9995,2 53023  53.2171 121.2071 0001081  86.0858 274.0258 15.08841139 56934,6917.877,95.437,540.49,538.994,0.0
53023.0,STARLINK-4284,PAYLOAD,2023-07-14 18:24:58,15.08829399,0.0001222,53.2168,113.7735,83.1939,276.9192,0.00024421,3.6e-05,0.0,0 STARLINK-4284,1 53023U 22076AP  23195.76733874  .00003600  00000-0  24421-3 0  9990,2 53023  53.2168 113.7735 0001222  83.1939 276.9192 15.08829399 57188,6917.913,95.438,540.623,538.932,0.0
53023.0,STARLINK-4284,PAYLOAD,2023-07-15 03:57:15,15.08845778,0.0001132,53.2171,111.9881,97.8572,262.2549,0.0002721,4.046e-05,0.0,0 STARLINK-4284,1 53023U 22076AP  23196.16476610  .00004046  00000-0  27210-3 0  9991,2 53023  53.2171 111.9881 0001132  97.8572 262.2549 15.08845778 57249,6917.863,95.437,540.511,538.945,0.0
